start=new Date('2023-01-19T00:00:00.000Z').valueOf();
sats=[{"CENTER_NAME":"EARTH","OBJECT_TYPE":"PAYLOAD","PERIAPSIS":"546.572","BSTAR":"0.00020231000000","APOAPSIS":"547.843","INCLINATION":"53.0528","TIME_SYSTEM":"UTC","ELEMENT_SET_NO":"999","GP_ID":"223454287","CLASSIFICATION_TYPE":"U","RCS_SIZE":"LARGE","REV_AT_EPOCH":"11031","COUNTRY_CODE":"US","NORAD_CAT_ID":"47390","OBJECT_NAME":"STARLINK-2111","ECCENTRICITY":"0.00009180","TLE_LINE2":"2 47390  53.0528 166.1533 0000918  84.7235 275.3858 15.06402026110310","MEAN_ELEMENT_THEORY":"SGP4","SEMIMAJOR_AXIS":"6925.342","EPOCH":"2023-01-18T16:54:28.466496","LAUNCH_DATE":"2021-01-20","MEAN_MOTION_DOT":"0.00002734","RA_OF_ASC_NODE":"166.1533","EPHEMERIS_TYPE":"0","ARG_OF_PERICENTER":"84.7235","FILE":"3754254","MEAN_MOTION_DDOT":"0.0000000000000","MEAN_ANOMALY":"275.3858","SITE":"AFETR","PERIOD":"95.592","OBJECT_ID":"2021-005AT","TLE_LINE1":"1 47390U 21005AT  23018.70449614  .00002734  00000-0  20231-3 0  9997","MEAN_MOTION":"15.06402026","DECAY_DATE":null,"REF_FRAME":"TEME"},{"INCLINATION":"53.0520","ELEMENT_SET_NO":"999","TIME_SYSTEM":"UTC","BSTAR":"0.00173560000000","CENTER_NAME":"EARTH","OBJECT_TYPE":"PAYLOAD","PERIAPSIS":"546.298","APOAPSIS":"547.957","SEMIMAJOR_AXIS":"6925.263","EPOCH":"2023-01-18T15:32:10.765248","LAUNCH_DATE":"2021-01-20","REV_AT_EPOCH":"11072","GP_ID":"223453536","RCS_SIZE":"LARGE","CLASSIFICATION_TYPE":"U","COUNTRY_CODE":"US","NORAD_CAT_ID":"47391","OBJECT_NAME":"STARLINK-2112","MEAN_ELEMENT_THEORY":"SGP4","TLE_LINE2":"2 47391  53.0520 136.4028 0001198  79.0721 281.0403 15.06428031110729","ECCENTRICITY":"0.00011980","FILE":"3754254","ARG_OF_PERICENTER":"79.0721","MEAN_MOTION_DDOT":"0.0000000000000","MEAN_MOTION_DOT":"0.00025684","RA_OF_ASC_NODE":"136.4028","EPHEMERIS_TYPE":"0","OBJECT_ID":"2021-005AU","TLE_LINE1":"1 47391U 21005AU  23018.64734682  .00025684  00000-0  17356-2 0  9995","REF_FRAME":"TEME","DECAY_DATE":null,"MEAN_MOTION":"15.06428031","MEAN_ANOMALY":"281.0403","SITE":"AFETR","PERIOD":"95.590"},{"FILE":"3753839","ARG_OF_PERICENTER":"84.7684","MEAN_MOTION_DDOT":"0.0000000000000","MEAN_MOTION_DOT":"0.00005444","EPHEMERIS_TYPE":"0","RA_OF_ASC_NODE":"136.6990","OBJECT_ID":"2021-005AV","TLE_LINE1":"1 47392U 21005AV  23018.58193800  .00005444  00000-0  38390-3 0  9994","DECAY_DATE":null,"REF_FRAME":"TEME","MEAN_MOTION":"15.06417199","MEAN_ANOMALY":"275.3431","SITE":"AFETR","PERIOD":"95.591","INCLINATION":"53.0521","ELEMENT_SET_NO":"999","TIME_SYSTEM":"UTC","BSTAR":"0.00038390000000","PERIAPSIS":"546.397","OBJECT_TYPE":"PAYLOAD","CENTER_NAME":"EARTH","APOAPSIS":"547.925","EPOCH":"2023-01-18T13:57:59.443200","SEMIMAJOR_AXIS":"6925.296","LAUNCH_DATE":"2021-01-20","REV_AT_EPOCH":"11132","RCS_SIZE":"LARGE","GP_ID":"223396516","CLASSIFICATION_TYPE":"U","COUNTRY_CODE":"US","NORAD_CAT_ID":"47392","OBJECT_NAME":"STARLINK-2113","TLE_LINE2":"2 47392  53.0521 136.6990 0001103  84.7684 275.3431 15.06417199111325","MEAN_ELEMENT_THEORY":"SGP4","ECCENTRICITY":"0.00011030"},{"MEAN_MOTION":"15.06412176","DECAY_DATE":null,"REF_FRAME":"TEME","TLE_LINE1":"1 47393U 21005AW  23018.40921304  .00009414  00000-0  64980-3 0  9999","OBJECT_ID":"2021-005AW","PERIOD":"95.591","SITE":"AFETR","MEAN_ANOMALY":"265.3725","MEAN_MOTION_DDOT":"0.0000000000000","ARG_OF_PERICENTER":"94.7386","FILE":"3753951","RA_OF_ASC_NODE":"112.8209","EPHEMERIS_TYPE":"0","MEAN_MOTION_DOT":"0.00009414","LAUNCH_DATE":"2021-01-20","SEMIMAJOR_AXIS":"6925.311","EPOCH":"2023-01-18T09:49:16.006656","ECCENTRICITY":"0.00010710","MEAN_ELEMENT_THEORY":"SGP4","TLE_LINE2":"2 47393  53.0550 112.8209 0001071  94.7386 265.3725 15.06412176111034","NORAD_CAT_ID":"47393","OBJECT_NAME":"STARLINK-2114","COUNTRY_CODE":"US","GP_ID":"223421865","RCS_SIZE":"LARGE","CLASSIFICATION_TYPE":"U","REV_AT_EPOCH":"11103","TIME_SYSTEM":"UTC","ELEMENT_SET_NO":"999","INCLINATION":"53.0550","APOAPSIS":"547.918","PERIAPSIS":"546.435","OBJECT_TYPE":"PAYLOAD","CENTER_NAME":"EARTH","BSTAR":"0.00064980000000"},{"ARG_OF_PERICENTER":"72.8782","FILE":"3753839","MEAN_MOTION_DDOT":"0.0000000000000","MEAN_MOTION_DOT":"0.00015197","EPHEMERIS_TYPE":"0","RA_OF_ASC_NODE":"131.7588","OBJECT_ID":"2021-005AX","MEAN_MOTION":"15.06417831","DECAY_DATE":null,"REF_FRAME":"TEME","TLE_LINE1":"1 47394U 21005AX  23018.60638482  .00015197  00000-0  10364-2 0  9995","SITE":"AFETR","MEAN_ANOMALY":"287.2344","PERIOD":"95.591","TIME_SYSTEM":"UTC","ELEMENT_SET_NO":"999","INCLINATION":"53.0517","OBJECT_TYPE":"PAYLOAD","PERIAPSIS":"546.288","CENTER_NAME":"EARTH","BSTAR":"0.00103640000000","APOAPSIS":"548.030","SEMIMAJOR_AXIS":"6925.294","EPOCH":"2023-01-18T14:33:11.648448","LAUNCH_DATE":"2021-01-20","COUNTRY_CODE":"US","GP_ID":"223396646","CLASSIFICATION_TYPE":"U","RCS_SIZE":"LARGE","REV_AT_EPOCH":"11140","ECCENTRICITY":"0.00012580","MEAN_ELEMENT_THEORY":"SGP4","TLE_LINE2":"2 47394  53.0517 131.7588 0001258  72.8782 287.2344 15.06417831111406","NORAD_CAT_ID":"47394","OBJECT_NAME":"STARLINK-2115"},{"SEMIMAJOR_AXIS":"6925.263","EPOCH":"2023-01-18T13:27:28.953792","LAUNCH_DATE":"2021-01-20","REV_AT_EPOCH":"11085","RCS_SIZE":"LARGE","GP_ID":"223396527","CLASSIFICATION_TYPE":"U","COUNTRY_CODE":"US","NORAD_CAT_ID":"47395","OBJECT_NAME":"STARLINK-2117","TLE_LINE2":"2 47395  53.0527 126.8026 0001442  96.6371 263.4783 15.06427957110854","MEAN_ELEMENT_THEORY":"SGP4","ECCENTRICITY":"0.00014420","INCLINATION":"53.0527","ELEMENT_SET_NO":"999","TIME_SYSTEM":"UTC","BSTAR":"0.00201500000000","PERIAPSIS":"546.129","OBJECT_TYPE":"PAYLOAD","CENTER_NAME":"EARTH","APOAPSIS":"548.126","OBJECT_ID":"2021-005AY","TLE_LINE1":"1 47395U 21005AY  23018.56075178  .00029882  00000-0  20150-2 0  9998","REF_FRAME":"TEME","DECAY_DATE":null,"MEAN_MOTION":"15.06427957","MEAN_ANOMALY":"263.4783","SITE":"AFETR","PERIOD":"95.590","FILE":"3753840","ARG_OF_PERICENTER":"96.6371","MEAN_MOTION_DDOT":"0.0000000000000","MEAN_MOTION_DOT":"0.00029882","EPHEMERIS_TYPE":"0","RA_OF_ASC_NODE":"126.8026"},{"GP_ID":"223396657","CLASSIFICATION_TYPE":"U","RCS_SIZE":"LARGE","REV_AT_EPOCH":"11133","COUNTRY_CODE":"US","NORAD_CAT_ID":"47396","OBJECT_NAME":"STARLINK-2118","ECCENTRICITY":"0.00015730","MEAN_ELEMENT_THEORY":"SGP4","TLE_LINE2":"2 47396  53.0522 136.6114 0001573  94.3057 265.8112 15.06413090111337","SEMIMAJOR_AXIS":"6925.308","EPOCH":"2023-01-18T14:29:50.646624","LAUNCH_DATE":"2021-01-20","OBJECT_TYPE":"PAYLOAD","CENTER_NAME":"EARTH","PERIAPSIS":"546.084","BSTAR":"0.00052944000000","APOAPSIS":"548.263","INCLINATION":"53.0522","TIME_SYSTEM":"UTC","ELEMENT_SET_NO":"999","MEAN_ANOMALY":"265.8112","SITE":"AFETR","PERIOD":"95.591","OBJECT_ID":"2021-005AZ","TLE_LINE1":"1 47396U 21005AZ  23018.60405841  .00007616  00000-0  52944-3 0  9996","MEAN_MOTION":"15.06413090","REF_FRAME":"TEME","DECAY_DATE":null,"MEAN_MOTION_DOT":"0.00007616","RA_OF_ASC_NODE":"136.6114","EPHEMERIS_TYPE":"0","ARG_OF_PERICENTER":"94.3057","FILE":"3753840","MEAN_MOTION_DDOT":"0.0000000000000"},{"PERIOD":"95.592","SITE":"AFETR","MEAN_ANOMALY":"263.3862","DECAY_DATE":null,"REF_FRAME":"TEME","MEAN_MOTION":"15.06404634","TLE_LINE1":"1 47397U 21005BA  23018.66763656  .00002620  00000-0  19467-3 0  9997","OBJECT_ID":"2021-005BA","RA_OF_ASC_NODE":"166.3089","EPHEMERIS_TYPE":"0","MEAN_MOTION_DOT":"0.00002620","MEAN_MOTION_DDOT":"0.0000000000000","FILE":"3754254","ARG_OF_PERICENTER":"96.7250","MEAN_ELEMENT_THEORY":"SGP4","TLE_LINE2":"2 47397  53.0539 166.3089 0001083  96.7250 263.3862 15.06404634110310","ECCENTRICITY":"0.00010830","NORAD_CAT_ID":"47397","OBJECT_NAME":"STARLINK-2119","COUNTRY_CODE":"US","REV_AT_EPOCH":"11031","RCS_SIZE":"LARGE","GP_ID":"223454538","CLASSIFICATION_TYPE":"U","LAUNCH_DATE":"2021-01-20","SEMIMAJOR_AXIS":"6925.334","EPOCH":"2023-01-18T16:01:23.798784","APOAPSIS":"547.949","BSTAR":"0.00019467000000","OBJECT_TYPE":"PAYLOAD","PERIAPSIS":"546.449","CENTER_NAME":"EARTH","ELEMENT_SET_NO":"999","TIME_SYSTEM":"UTC","INCLINATION":"53.0539"},{"INCLINATION":"53.0528","TIME_SYSTEM":"UTC","ELEMENT_SET_NO":"999","APOAPSIS":"547.933","OBJECT_TYPE":"PAYLOAD","CENTER_NAME":"EARTH","PERIAPSIS":"546.397","BSTAR":"0.00032692000000","LAUNCH_DATE":"2021-01-20","SEMIMAJOR_AXIS":"6925.300","EPOCH":"2023-01-18T15:22:54.831360","NORAD_CAT_ID":"47398","OBJECT_NAME":"STARLINK-2120","ECCENTRICITY":"0.00011090","MEAN_ELEMENT_THEORY":"SGP4","TLE_LINE2":"2 47398  53.0528 136.4426 0001109 114.5262 245.5843 15.06415985110720","CLASSIFICATION_TYPE":"U","GP_ID":"223454288","RCS_SIZE":"LARGE","REV_AT_EPOCH":"11072","COUNTRY_CODE":"US","MEAN_MOTION_DDOT":"0.0000000000000","ARG_OF_PERICENTER":"114.5262","FILE":"3754254","RA_OF_ASC_NODE":"136.4426","EPHEMERIS_TYPE":"0","MEAN_MOTION_DOT":"0.00004593","TLE_LINE1":"1 47398U 21005BB  23018.64091240  .00004593  00000-0  32692-3 0  9995","MEAN_MOTION":"15.06415985","REF_FRAME":"TEME","DECAY_DATE":null,"OBJECT_ID":"2021-005BB","PERIOD":"95.591","MEAN_ANOMALY":"245.5843","SITE":"AFETR"},{"EPHEMERIS_TYPE":"0","RA_OF_ASC_NODE":"146.8122","MEAN_MOTION_DOT":"0.00006368","MEAN_MOTION_DDOT":"0.0000000000000","FILE":"3753843","ARG_OF_PERICENTER":"59.4581","PERIOD":"95.592","MEAN_ANOMALY":"300.6530","SITE":"AFETR","TLE_LINE1":"1 47399U 21005BC  23018.61054195  .00006368  00000-0  44601-3 0  9996","REF_FRAME":"TEME","DECAY_DATE":null,"MEAN_MOTION":"15.06397946","OBJECT_ID":"2021-005BC","APOAPSIS":"548.076","BSTAR":"0.00044601000000","OBJECT_TYPE":"PAYLOAD","CENTER_NAME":"EARTH","PERIAPSIS":"546.364","INCLINATION":"53.0522","ELEMENT_SET_NO":"999","TIME_SYSTEM":"UTC","NORAD_CAT_ID":"47399","OBJECT_NAME":"STARLINK-2121","TLE_LINE2":"2 47399  53.0522 146.8122 0001236  59.4581 300.6530 15.06397946110570","MEAN_ELEMENT_THEORY":"SGP4","ECCENTRICITY":"0.00012360","REV_AT_EPOCH":"11057","GP_ID":"223396551","CLASSIFICATION_TYPE":"U","RCS_SIZE":"LARGE","COUNTRY_CODE":"US","LAUNCH_DATE":"2021-01-20","SEMIMAJOR_AXIS":"6925.355","EPOCH":"2023-01-18T14:39:10.824480"}];
